              M50 Cartesian                         J2K Cartesian  
    -----------------------------------       --------------------------------
     X    =       11945324.23                 X    =         3710253.25
     Y    =      -17775936.73  feet           Y    =        -5377002.83  meter
     Z    =       -6080265.20                 Z    =        -1835408.85
     XDOT =      10423.240580                 XDOT =        3158.803490
     YDOT =      13346.744101  feet/sec       YDOT =        4103.512422  meter/sec
     ZDOT =     -18591.313118                 ZDOT =       -5651.243816
 
              TDR Cartesian                         TDR Cartesian  
    -----------------------------------       --------------------------------
     X    =       12054769.48                 X    =         3674293.74
     Y    =       17728667.94  feet           Y    =         5403697.99  meter
     Z    =       -6001765.42                 Z    =        -1829338.10
     XDOT =     -15013.063115                 XDOT =       -4575.981638
     YDOT =       3953.699548  feet/sec       YDOT =        1205.087622  meter/sec
     ZDOT =     -18525.117951                 ZDOT =       -5646.455951
  
  
    The mean element set is posted at the UTC for which position is
    just north of the next ascending node relative to the above
    vector time
 
 
    TWO LINE MEAN ELEMENT SET
  
    ISS
    1 25544U 98067A   16086.20914506  .00016717  00000-0  10270-3 0  9173
    2 25544  51.6399 111.8812 0001812 350.7736   9.3383 15.54347148 32070
  
  
    Satellite: ISS
    Catalog Number: 25544
    Epoch time:      16086.20914506   =   yrday.fracday
    Element set:     917
    Inclination:       51.6399  deg
    RA of node:       111.8812  deg
    Eccentricity:     .0001812     
    Arg of perigee:   350.7736  deg
    Mean anomaly:       9.3383  deg
    Mean motion:   15.54347148  rev/day
    Decay rate:    1.67170E-04  rev/day^2
    Epoch rev:            3207
    Checksum:              307
 
             </PRE>
           </TD>
        </TR>
    </TABLE>
    
    <table align="center" border="0" width="600" cellpadding="0" cellspacing="0">
      <tr>
        <td align="center" valign="top"><hr size="1" width="600" noshade="noshade" />
        <font face="Arial,helvetica" size="-2">Curator: <a href="/cgi-bin/comment.cgi?jsc-hsfwebma@mail.nasa.gov">Kim 
          Dismukes</a> | Responsible NASA Official: <a href="/cgi-bin/comment.cgi?jsc-hsfwebma@mail.nasa.gov">Amiko Kauderer</a> | Updated: 06/08/2009<br />
        <a href="http://www.nasa.gov/about/highlights/HP_Privacy.html">Privacy Policy and Important Notices</a></font></td>
      </tr>
    </table>
    </body>
    </html>
